CUTE-1 (CO-55)
1 27844U 03031E   26208.00796652  .00000310  00000+0  15310-3 0  9991
2 27844  98.6748 216.0679 0010791  72.3188 287.9168 14.24357848197348
CUBESAT XI-IV (CO-57)
1 27848U 03031J   26207.45419514  .00000283  00000+0  14333-3 0  9995
2 27848  98.6781 215.2019 0010745  90.2969 269.9441 14.23639776196966
CUBESAT XI-V
1 28895U 05043F   26208.42163029  .00001503  00000+0  24336-3 0  9998
2 28895  98.3030   4.9008 0015290  79.5865 280.7064 14.72730629107674
CUTE-1.7+APD II (CO-65)
1 32785U 08021C   26208.48243749  .00005136  00000+0  32182-3 0  9998
2 32785  97.8303 190.7559 0006933 246.6758 113.3741 15.09799650991271
CANX-2
1 32790U 08021H   26208.35962424  .00004497  00000+0  31382-3 0  9998
2 32790  97.8664 188.9316 0008620 268.6064  91.4174 15.05877651990859
SEEDS II (CO-66)
1 32791U 08021J   26208.46376187  .00019405  00000+0  59062-3 0  9996
2 32791  97.7534 208.3275 0004253 134.5523 225.6067 15.34046988993460
SWISSCUBE
1 35932U 09051B   26208.19188562  .00001065  00000+0  21960-3 0  9997
2 35932  98.3994 116.7712 0008163  87.5249 272.6886 14.62550556895004
BEESAT-1
1 35933U 09051C   26207.67468511  .00000922  00000+0  19452-3 0  9999
2 35933  98.3923 115.7975 0006534 100.4092 259.7845 14.61777717894951
ITUPSAT1
1 35935U 09051E   26207.70021734  .00000860  00000+0  18720-3 0  9995
2 35935  98.4007 114.9728 0008652 111.5509 248.6613 14.60493495894501
TISAT 1
1 36799U 10035E   26208.33992411  .00022900  00000+0  71590-3 0  9990
2 36799  98.0712 158.5008 0004902  99.2085 260.9710 15.33161311873859
STRAND-1
1 39090U 13009E   26208.43633812  .00000292  00000+0  11233-3 0  9997
2 39090  98.3940  27.6848 0009831 108.4259 251.7998 14.37185087702847
BRITE-AUSTRIA
1 39091U 13009F   26208.32740845  .00000194  00000+0  80413-4 0  9999
2 39091  98.4015  26.7744 0011292 117.4603 242.7733 14.36556736702810
NEE-01 PEGASO
1 39151U 13018B   26207.92161974  .00002230  00000+0  21556-3 0  9996
2 39151  98.1266 353.4003 0013146  38.1950 322.0198 14.93836759716635
POPACS 2
1 39269U 13055E   26208.42170117  .00024858 -83074-6  40675-3 0  9995
2 39269  80.9907  98.1098 0413233  64.6723 299.6690 14.92492810669218
POPACS 3
1 39270U 13055F   26208.37420390  .00008576  00000+0  20495-3 0  9999
2 39270  81.0003 185.5820 0547192 307.4938  47.7679 14.56878849644404
ZACUBE-1 (TSHEPISOSAT)
1 39417U 13066B   26208.13133763  .00004285  00000+0  33033-3 0  9998
2 39417  97.7984 170.6597 0043953 117.1114 243.4603 15.01394529686725
WNISAT-1
1 39423U 13066H   26207.94469945  .00001173  00000+0  21973-3 0  9990
2 39423  97.7249 354.2890 0164301 106.5817 255.3499 14.58142736672525
TRITON-1
1 39427U 13066M   26208.54271374  .00001305  00000+0  16022-3 0  9994
2 39427  97.8213 117.4257 0091298 102.4492 258.6956 14.81836699680061
GOMX-1
1 39430U 13066Q   26208.49521846  .00001160  00000+0  18049-3 0  9994
2 39430  97.6466  46.4154 0127198 308.4736  50.5113 14.69567360675833
CUBEBUG-2 (LO-74)
1 39440U 13066AA  26208.31781549  .00003125  00000+0  28985-3 0  9997
2 39440  97.8911 157.4785 0055677 254.0267 105.4814 14.94031385682984
NEE-02 KRYSAOR
1 39441U 13066AB  26208.25488132  .00002231  00000+0  24763-3 0  9990
2 39441  97.8897 147.1901 0064494 299.1346  60.3424 14.86782201682155
FUNCUBE-1 (AO-73)
1 39444U 13066AE  26208.35411493  .00008513  00000+0  51957-3 0  9994
2 39444  97.8293 180.6580 0037694  68.3219 292.2016 15.09973422685722
UWE-3
1 39446U 13066AG  26208.31652211  .00002872  00000+0  24742-3 0  9991
2 39446  97.8729 164.6739 0048172 183.6412 176.4466 14.97269736683581
BRITE-CA1 (TORONTO)
1 40020U 14033L   26207.98858399  .00001270  00000+0  19719-3 0  9992
2 40020  97.9783 336.1936 0079311 148.6729 211.9240 14.72745307648074
DUCHIFAT-1
1 40021U 14033M   26208.51533748  .00185793  00000+0  12573-2 0  9994
2 40021  98.0406 273.6388 0004481 227.0206 133.0681 15.74468608662071
NANOSATC-BR1
1 40024U 14033Q   26208.04595495  .00018421  00000+0  58567-3 0  9999
2 40024  98.0709 243.9996 0004584  68.8236 291.3493 15.32673179660086
QB50P1
1 40025U 14033R   26208.47693388  .00008325  00000+0  40273-3 0  9994
2 40025  98.0968 222.4658 0010532  89.7516 270.4923 15.18834389659141
QB50P2
1 40032U 14033Y   26208.44449845  .00007035  00000+0  37344-3 0  9998
2 40032  98.0767 207.8496 0008684  49.5503 310.6483 15.15651943658763
PERSEUS-M2
1 40037U 14033AD  26208.47410691  .00001646  00000+0  15350-3 0  9998
2 40037  97.9970 159.8417 0012188 159.1115 201.0606 14.95613686656804
PERSEUS-M1
1 40039U 14033AF  26208.30995951  .00001663  00000+0  15453-3 0  9992
2 40039  97.9652 153.1067 0011990 157.6421 202.5324 14.95744263656634
POLYITAN-1
1 40042U 14033AJ  26208.04018129  .00020958  00000+0  62643-3 0  9991
2 40042  98.0935 238.1111 0006606  26.8214 333.3368 15.34598444659707
TIGRISAT
1 40043U 14033AK  26207.93204972  .00001768  00000+0  20817-3 0  9997
2 40043  97.7878 357.0469 0047838 305.1364  54.5372 14.85280116651526
AEROCUBE 6A
1 40045U 14033AM  26208.02760197  .00006031  00000+0  50282-3 0  9993
2 40045  97.7280  14.5698 0036348 240.3040 119.4563 14.98461788652589
AEROCUBE 6B
1 40046U 14033AN  26207.99128144  .00006542  00000+0  52406-3 0  9996
2 40046  97.7198  14.3983 0038363 228.4816 131.3114 14.99906611652721
CANX-4
1 40055U 14034C   26208.20847647  .00000933  00000+0  12671-3 0  9996
2 40055  98.3064  84.9810 0011505 239.7573 120.2500 14.81328915650456
CANX-5
1 40056U 14034D   26208.20644169  .00000938  00000+0  12738-3 0  9990
2 40056  98.3067  85.0248 0011506 240.0307 119.9763 14.81346316641268
UKUBE-1
1 40074U 14037F   26208.48803102  .00009002  00000+0  49813-3 0  9992
2 40074  98.4249 216.0146 0002845  68.3441 291.8091 15.14124325654652
BRITE-PL2 (HEWELIUSZ)
1 40119U 14049B   26208.27302823  .00002086  00000+0  19735-3 0  9991
2 40119  97.9127 320.5915 0013340 342.5276  17.5483 14.94723481647432
AEROCUBE 5C
1 40965U 15058B   26208.19902559  .00004111  00000+0  35856-3 0  9997
2 40965  64.7674 138.0971 0133202  47.8892 313.3452 14.91652510371622
AEROCUBE 7
1 40966U 15058C   26208.14676709  .00005579  00000+0  43911-3 0  9998
2 40966  64.7628 119.6272 0122836  46.2043 314.9151 14.96020827371935
FOX-1A (AO-85)
1 40967U 15058D   26208.25965043  .00004275  00000+0  37693-3 0  9995
2 40967  64.7747 154.4322 0133364  41.2537 319.8559 14.91165221119548
SINOD-D 1
1 40968U 15058E   26208.18684233  .00006048  00000+0  47334-3 0  9990
2 40968  64.7750 133.6227 0121989  37.6453 323.3121 14.96201511122640
SNAP-3 ALICE
1 40970U 15058G   26208.29921975  .00163234  00000+0  12731-2 0  9995
2 40970  64.7491 324.2111 0027886 341.9631  18.0527 15.70428438123163
LMRST-SAT
1 40971U 15058H   26208.22528329  .00003947  00000+0  35154-3 0  9994
2 40971  64.7755 150.9539 0134865  43.2552 317.9054 14.90775164119528
SNAP-3 EDDIE
1 40972U 15058J   26208.31857263  .00208712  00000+0  14925-2 0  9996
2 40972  64.7402 314.5420 0029185 343.5934  16.4270 15.72295512125313
PROPCUBE 3
1 40973U 15058K   26208.16179253  .00005053  00000+0  41176-3 0  9998
2 40973  64.7688 127.6173 0126623  44.4442 316.6747 14.94510856120777
BISONSAT
1 40974U 15058L   26207.99068866  .00012447  00000+0  57908-3 0  9991
2 40974  64.7588  44.8489 0083074  30.6062 329.9871 15.17191762121654
SNAP-3 JIMI
1 40975U 15058M   26207.99167268  .00007327  00000+0  49219-3 0  9995
2 40975  64.7653  93.7911 0108675  39.7631 321.1387 15.02754881120205
PROPCUBE 1 (FLORA)
1 40976U 15058N   26208.35137988  .00003666  00000+0  34099-3 0  9995
2 40976  64.7736 170.7393 0133403  45.4797 315.7120 14.89393414122247
SINOD-D 3
1 40977U 15058P   26208.26681522  .00005447  00000+0  45060-3 0  9993
2 40977  64.7721 150.6389 0121941  42.5457 318.5025 14.94274135120741
RAVAN
1 41849U 16067B   26208.21990646  .00063765  00000+0  82536-3 0  9994
2 41849  97.9823 102.5329 0004267 171.6599 188.4727 15.58694370533922
CELTEE 1
1 41850U 16067C   26208.16991814  .00005405  00000+0  25422-3 0  9996
2 41850  98.0623  77.4637 0002560  94.8074 265.3451 15.20042662531954
OPTICUBE 04
1 41851U 16067D   26208.11096319  .00001851  00000+0  11867-3 0  9997
2 41851  98.0663  62.4746 0015139 348.3840  11.7036 15.09814167531190
AEROCUBE 8D
1 41852U 16067E   26208.18966733  .00008031  00000+0  32580-3 0  9993
2 41852  98.0632  81.4078 0003664  25.5621 334.5795 15.24917153532169
AEROCUBE 8C
1 41853U 16067F   26208.20802316  .00007717  00000+0  31086-3 0  9993
2 41853  98.0503  78.6046 0003548 287.7797  72.3052 15.25171214532161
CORVUS BC2
1 42846U 17042X   26208.38183831  .00003357  00000+0  23081-3 0  9995
2 42846  97.4107   8.1839 0012229 341.1643  18.9130 15.06520556493116
CORVUS BC1
1 42847U 17042Y   26208.43844691  .00003114  00000+0  21355-3 0  9993
2 42847  97.4136   9.0786 0010399 316.5571  43.4837 15.06684627493153
MAKERSAT 0
1 43016U 17073D   26208.13444494  .00022155  00000+0  57397-3 0  9991
2 43016  97.4576  90.9873 0105704 130.1427 230.9134 15.33427463472581
SIRION PATHFINDER-2
1 43759U 18099B   26208.08271741  .00005243  00000+0  28511-3 0  9996
2 43759  97.4234 256.1941 0009668 152.6154 207.5590 15.14860387418666
CORVUS BC4
1 43767U 18099K   26208.07763036  .00004599  00000+0  26556-3 0  9997
2 43767  97.4048 249.8920 0007357 212.2968 147.7814 15.12781167418438
M2 PATHFINDER
1 45727U 20037E   26208.47724770  .00003076  00000+0  22196-3 0  9991
2 45727  97.8146  40.1659 0011921  23.6553 336.5219 15.04842984331556
NETSAT-4
1 46504U 20068U   26208.48737314  .00018392  00000+0  38975-3 0  9997
2 46504  97.8607 220.0063 0006200 154.8949 205.2601 15.45132743321994
NETSAT-3
1 46505U 20068V   26208.26462977  .00019149  00000+0  42182-3 0  9990
2 46505  97.8654 217.9334 0005424 168.4948 191.6424 15.43981692321860
NETSAT-1
1 46506U 20068W   26208.48491833  .00013167  00000+0  38393-3 0  9991
2 46506  97.8753 212.0146 0003616 200.1060 160.0040 15.35501131321487
NETSAT-2
1 46507U 20068X   26208.27279729  .00024070  00000+0  46743-3 0  9990
2 46507  97.8614 219.8268 0003922 167.5714 192.5632 15.47638218321933
GREENCUBE (IO-117)
1 53109U 22080E   26208.18285488 -.00000003  00000+0  00000+0 0  9994
2 53109  70.1377 284.3383 0009094 280.8075  79.1561  6.42583419 94631
SITRO-AIS 5 (KATYS)
1 57176U 23091L   26208.49091993  .00011783  00000+0  40390-3 0  9991
2 57176  97.5043 272.7922 0009539 325.9064  34.1563 15.30302919170500
SITRO-AIS 6 (CHIRKIN)
1 57192U 23091AC  26208.49922243  .00009871  00000+0  37885-3 0  9990
2 57192  97.5050 271.7012 0009993 331.1470  28.9214 15.26634495170437
SITRO-AIS 8 (ANOKHIN)
1 57193U 23091AD  26208.50067756  .00014562  00000+0  45642-3 0  9995
2 57193  97.5040 274.5597 0008488 319.7710  40.2903 15.33144854170629
SITRO-AIS 7 (FARTUSHNIY)
1 57194U 23091AE  26208.44529772  .00010142  00000+0  39305-3 0  9999
2 57194  97.5046 271.4503 0009957 332.6815  27.3898 15.26303627170414
SITRO-AIS 10 (BURDAEV)
1 57199U 23091AK  26208.48725536  .00022505  00000+0  56422-3 0  9999
2 57199  97.5064 280.0294 0004486 283.1017  76.9727 15.40047584170962
SITRO-AIS 9 (SHCHUKIN)
1 57201U 23091AM  26208.52693551  .00021183  00000+0  54049-3 0  9993
2 57201  97.5063 279.7674 0004721 284.4638  75.6083 15.39521978170959
SITRO-AIS 12 (SMIRENNIY)
1 57204U 23091AQ  26208.50984946  .00020629  00000+0  52140-3 0  9999
2 57204  97.5076 280.2428 0004433 275.9605  84.1135 15.39816988170972
SITRO-AIS 11 (SHEFFER)
1 57208U 23091AU  26208.51177617  .00021584  00000+0  53727-3 0  9996
2 57208  97.5074 280.5175 0004401 274.8174  85.2569 15.40275415170991
SITRO-AIS 25
1 59066U 24039R   26208.50664674  .00005208  00000+0  40349-3 0  9997
2 59066  95.3890 262.7973 0144044 186.0952 173.8528 14.93716588130747
SITRO-AIS 26
1 59067U 24039S   26208.51360014  .00004418  00000+0  34439-3 0  9995
2 59067  95.3893 262.6915 0144339 186.7160 173.2136 14.93506699130739
SITRO-AIS 27
1 59068U 24039T   26208.53942286  .00003725  00000+0  28818-3 0  9999
2 59068  95.3889 263.0001 0143476 185.2240 174.7499 14.93930753130763
SITRO-AIS 28
1 59071U 24039U   26208.51596573  .00004665  00000+0  35989-3 0  9996
2 59071  95.3897 263.0333 0143356 185.0542 174.9247 14.93969209130765
GRBBETA
1 60237U 24128C   26208.10419226  .00004059  00000+0  28117-3 0  9997
2 60237  61.9901  76.1921 0035374 143.3980 216.9540 15.06880599112284
OOV-CUBE (TUBSAT-30)
1 60240U 24128F   26208.11005608  .00002252  00000+0  17984-3 0  9990
2 60240  61.9952  86.3495 0039499 142.7415 217.6428 15.02917615112112
ROBUSTA-3A (MEDITERRAN*)
1 60243U 24128J   26208.08200797  .00008696  00000+0  50633-3 0  9991
2 60243  61.9866  67.1152 0036400 136.6182 223.7789 15.12138823112450
LASARSAT
1 62391U 24247Q   26208.51276970  .00037959  00000+0  69251-3 0  9993
2 62391  44.9745  35.1955 0009205 241.5344 118.4620 15.48805636 89569
CROCUBE
1 62394U 24247T   26207.55494268  .00046024  00000+0  77476-3 0  9992
2 62394  44.9707  37.2275 0009198 241.9219 118.0743 15.51003218 89454
FORESAIL-1 PRIME
1 66778U 25276DS  26208.18364739  .00004014  00000+0  19492-3 0  9991
2 66778  97.4187 280.7263 0001805  14.6135 345.5152 15.19021930 36470
KNACKSAT-2
1 67683U 98067XZ  26208.27946536  .00058412  00000+0  61773-3 0  9996
2 67683  51.6284  92.2796 0007038   4.9977 355.1087 15.63565976 26546
